{"type": "FeatureCollection", "features": [{"type": "Feature", "properties": {"norad_id": 28054, "name": "DMSP 5D-3 F16 (USA 172)", "group": "weather", "lat": 20.96275886190923, "lon": -172.2697167793583, "alt_km": 848.5849097165155, "timestamp": "2025-12-12T18:57:43.774649+00:00", "meta": {"OBJECT_NAME": "DMSP 5D-3 F16 (USA 172)", "OBJECT_ID": "2003-048A", "EPOCH": "2025-12-12T06:57:20.289024", "MEAN_MOTION": 14.14423935, "ECCENTRICITY": 0.00065159, "INCLINATION": 99.0047, "RA_OF_ASC_NODE": 3.7432, "ARG_OF_PERICENTER": 322.3206, "MEAN_ANOMALY": 170.4275, "EPHEMERIS_TYPE": 0, "CLASSIFICATION_TYPE": "U", "NORAD_CAT_ID": 28054, "ELEMENT_SET_NO": 999, "REV_AT_EPOCH": 14306, "BSTAR": 0.00013413451, "MEAN_MOTION_DOT": 2.11e-06, "MEAN_MOTION_DDOT": 0}, "tle": {"line1": "1 28054U 03048A   25346.28981816  .00000211  00000+0  13413-3 0  9995", "line2": "2 28054  99.0047   3.7432 0006515 322.3206 170.4275 14.14423935143060"}}, "geometry": {"type": "Point", "coordinates": [-172.2697167793583, 20.96275886190923]}}, {"type": "Feature", "properties": {"norad_id": 28912, "name": "METEOSAT-9 (MSG-2)", "group": "weather", "lat": -0.6272916384615552, "lon": 51.899002295749, "alt_km": 35799.829870450114, "timestamp": "2025-12-12T18:57:43.774698+00:00", "meta": {"OBJECT_NAME": "METEOSAT-9 (MSG-2)", "OBJECT_ID": "2005-049B", "EPOCH": "2025-12-11T20:34:34.468032", "MEAN_MOTION": 1.00276076, "ECCENTRICITY": 0.0003644, "INCLINATION": 8.9379, "RA_OF_ASC_NODE": 55.9858, "ARG_OF_PERICENTER": 189.8677, "MEAN_ANOMALY": 189.2654, "EPHEMERIS_TYPE": 0, "CLASSIFICATION_TYPE": "U", "NORAD_CAT_ID": 28912, "ELEMENT_SET_NO": 999, "REV_AT_EPOCH": 512, "BSTAR": 0, "MEAN_MOTION_DOT": 1.29e-06, "MEAN_MOTION_DDOT": 0}, "tle": {"line1": "1 28912U 05049B   25345.85734338  .00000129  00000+0  00000+0 0  9990", "line2": "2 28912   8.9379  55.9858 0003644 189.8677 189.2654  1.00276076  5125"}}, "geometry": {"type": "Point", "coordinates": [51.899002295749, -0.6272916384615552]}}, {"type": "Feature", "properties": {"norad_id": 29522, "name": "DMSP 5D-3 F17 (USA 191)", "group": "weather", "lat": 77.42211351766665, "lon": -144.23816096016245, "alt_km": 839.248162085938, "timestamp": "2025-12-12T18:57:43.774716+00:00", "meta": {"OBJECT_NAME": "DMSP 5D-3 F17 (USA 191)", "OBJECT_ID": "2006-050A", "EPOCH": "2025-12-12T06:36:53.324352", "MEAN_MOTION": 14.14919236, "ECCENTRICITY": 0.00093898, "INCLINATION": 98.7394, "RA_OF_ASC_NODE": 351.6744, "ARG_OF_PERICENTER": 226.2831, "MEAN_ANOMALY": 133.7566, "EPHEMERIS_TYPE": 0, "CLASSIFICATION_TYPE": "U", "NORAD_CAT_ID": 29522, "ELEMENT_SET_NO": 999, "REV_AT_EPOCH": 98598, "BSTAR": 0.00016900826, "MEAN_MOTION_DOT": 2.83e-06, "MEAN_MOTION_DDOT": 0}, "tle": {"line1": "1 29522U 06050A   25346.27561718  .00000283  00000+0  16901-3 0  9990", "line2": "2 29522  98.7394 351.6744 0009389 226.2831 133.7566 14.14919236985985"}}, "geometry": {"type": "Point", "coordinates": [-144.23816096016245, 77.42211351766665]}}, {"type": "Feature", "properties": {"norad_id": 32958, "name": "FENGYUN 3A", "group": "weather", "lat": 5.883568247058308, "lon": 107.21668492358525, "alt_km": 833.2444842086024, "timestamp": "2025-12-12T18:57:43.774730+00:00", "meta": {"OBJECT_NAME": "FENGYUN 3A", "OBJECT_ID": "2008-026A", "EPOCH": "2025-12-12T06:18:11.041920", "MEAN_MOTION": 14.19514501, "ECCENTRICITY": 0.00079271, "INCLINATION": 98.6698, "RA_OF_ASC_NODE": 285.7995, "ARG_OF_PERICENTER": 311.8417, "MEAN_ANOMALY": 48.2082, "EPHEMERIS_TYPE": 0, "CLASSIFICATION_TYPE": "U", "NORAD_CAT_ID": 32958, "ELEMENT_SET_NO": 999, "REV_AT_EPOCH": 90888, "BSTAR": 0.00012108847, "MEAN_MOTION_DOT": 2.12e-06, "MEAN_MOTION_DDOT": 0}, "tle": {"line1": "1 32958U 08026A   25346.26262780  .00000212  00000+0  12109-3 0  9996", "line2": "2 32958  98.6698 285.7995 0007927 311.8417  48.2082 14.19514501908888"}}, "geometry": {"type": "Point", "coordinates": [107.21668492358525, 5.883568247058308]}}, {"type": "Feature", "properties": {"norad_id": 35491, "name": "GOES 14", "group": "weather", "lat": 0.16958680237128473, "lon": -103.62341781232212, "alt_km": 35832.0604761233, "timestamp": "2025-12-12T18:57:43.774745+00:00", "meta": {"OBJECT_NAME": "GOES 14", "OBJECT_ID": "2009-033A", "EPOCH": "2025-12-12T06:06:38.503584", "MEAN_MOTION": 1.00095998, "ECCENTRICITY": 8.007e-05, "INCLINATION": 1.2016, "RA_OF_ASC_NODE": 85.4016, "ARG_OF_PERICENTER": 161.6598, "MEAN_ANOMALY": 176.3554, "EPHEMERIS_TYPE": 0, "CLASSIFICATION_TYPE": "U", "NORAD_CAT_ID": 35491, "ELEMENT_SET_NO": 999, "REV_AT_EPOCH": 471, "BSTAR": 0, "MEAN_MOTION_DOT": -2.4e-07, "MEAN_MOTION_DDOT": 0}, "tle": {"line1": "1 35491U 09033A   25346.25461231 -.00000024  00000+0  00000+0 0  9996", "line2": "2 35491   1.2016  85.4016 0000800 161.6598 176.3554  1.00095998  4716"}}, "geometry": {"type": "Point", "coordinates": [-103.62341781232212, 0.16958680237128473]}}, {"type": "Feature", "properties": {"norad_id": 35951, "name": "DMSP 5D-3 F18 (USA 210)", "group": "weather", "lat": -33.26414703400147, "lon": -30.920836417667413, "alt_km": 850.1053053385922, "timestamp": "2025-12-12T18:57:43.774758+00:00", "meta": {"OBJECT_NAME": "DMSP 5D-3 F18 (USA 210)", "OBJECT_ID": "2009-057A", "EPOCH": "2025-12-12T05:32:32.869536", "MEAN_MOTION": 14.14768679, "ECCENTRICITY": 0.00120612, "INCLINATION": 98.8835, "RA_OF_ASC_NODE": 322.6342, "ARG_OF_PERICENTER": 64.0826, "MEAN_ANOMALY": 296.1589, "EPHEMERIS_TYPE": 0, "CLASSIFICATION_TYPE": "U", "NORAD_CAT_ID": 35951, "ELEMENT_SET_NO": 999, "REV_AT_EPOCH": 83315, "BSTAR": 0.00022742193, "MEAN_MOTION_DOT": 3.94e-06, "MEAN_MOTION_DDOT": 0}, "tle": {"line1": "1 35951U 09057A   25346.23093599  .00000394  00000+0  22742-3 0  9999", "line2": "2 35951  98.8835 322.6342 0012061  64.0826 296.1589 14.14768679833157"}}, "geometry": {"type": "Point", "coordinates": [-30.920836417667413, -33.26414703400147]}}, {"type": "Feature", "properties": {"norad_id": 36411, "name": "EWS-G2 (GOES 15)", "group": "weather", "lat": -0.23872557596795757, "lon": 67.58218510082095, "alt_km": 35810.45294625677, "timestamp": "2025-12-12T18:57:43.774771+00:00", "meta": {"OBJECT_NAME": "EWS-G2 (GOES 15)", "OBJECT_ID": "2010-008A", "EPOCH": "2025-12-12T05:12:43.668576", "MEAN_MOTION": 1.00269708, "ECCENTRICITY": 0.00057715, "INCLINATION": 0.813, "RA_OF_ASC_NODE": 86.0572, "ARG_OF_PERICENTER": 174.6352, "MEAN_ANOMALY": 320.0676, "EPHEMERIS_TYPE": 0, "CLASSIFICATION_TYPE": "U", "NORAD_CAT_ID": 36411, "ELEMENT_SET_NO": 999, "REV_AT_EPOCH": 5776, "BSTAR": 0, "MEAN_MOTION_DOT": 4.8e-07, "MEAN_MOTION_DDOT": 0}, "tle": {"line1": "1 36411U 10008A   25346.21717209  .00000048  00000+0  00000+0 0  9993", "line2": "2 36411   0.8130  86.0572 0005771 174.6352 320.0676  1.00269708 57767"}}, "geometry": {"type": "Point", "coordinates": [67.58218510082095, -0.23872557596795757]}}, {"type": "Feature", "properties": {"norad_id": 36744, "name": "COMS 1", "group": "weather", "lat": 3.621625776835942, "lon": 134.24557980647538, "alt_km": 35790.37035689491, "timestamp": "2025-12-12T18:57:43.774785+00:00", "meta": {"OBJECT_NAME": "COMS 1", "OBJECT_ID": "2010-032A", "EPOCH": "2025-12-11T15:50:01.719168", "MEAN_MOTION": 1.00270393, "ECCENTRICITY": 0.00010766, "INCLINATION": 4.3389, "RA_OF_ASC_NODE": 78.0101, "ARG_OF_PERICENTER": 214.1904, "MEAN_ANOMALY": 154.095, "EPHEMERIS_TYPE": 0, "CLASSIFICATION_TYPE": "U", "NORAD_CAT_ID": 36744, "ELEMENT_SET_NO": 999, "REV_AT_EPOCH": 4921, "BSTAR": 0, "MEAN_MOTION_DOT": -3.37e-06, "MEAN_MOTION_DDOT": 0}, "tle": {"line1": "1 36744U 10032A   25345.65974212 -.00000337  00000+0  00000+0 0  9997", "line2": "2 36744   4.3389  78.0101 0001076 214.1904 154.0950  1.00270393 49210"}}, "geometry": {"type": "Point", "coordinates": [134.24557980647538, 3.621625776835942]}}, {"type": "Feature", "properties": {"norad_id": 37214, "name": "FENGYUN 3B", "group": "weather", "lat": -67.41174866779355, "lon": 49.13526086895938, "alt_km": 843.9143465990373, "timestamp": "2025-12-12T18:57:43.774797+00:00", "meta": {"OBJECT_NAME": "FENGYUN 3B", "OBJECT_ID": "2010-059A", "EPOCH": "2025-12-12T07:39:09.168768", "MEAN_MOTION": 14.14790428, "ECCENTRICITY": 0.00220806, "INCLINATION": 98.9907, "RA_OF_ASC_NODE": 26.2927, "ARG_OF_PERICENTER": 358.9437, "MEAN_ANOMALY": 53.3647, "EPHEMERIS_TYPE": 0, "CLASSIFICATION_TYPE": "U", "NORAD_CAT_ID": 37214, "ELEMENT_SET_NO": 999, "REV_AT_EPOCH": 78100, "BSTAR": 0.00019991125, "MEAN_MOTION_DOT": 3.41e-06, "MEAN_MOTION_DDOT": 0}, "tle": {"line1": "1 37214U 10059A   25346.31885612  .00000341  00000+0  19991-3 0  9995", "line2": "2 37214  98.9907  26.2927 0022080 358.9437  53.3647 14.14790428781004"}}, "geometry": {"type": "Point", "coordinates": [49.13526086895938, -67.41174866779355]}}, {"type": "Feature", "properties": {"norad_id": 37849, "name": "SUOMI NPP", "group": "weather", "lat": 46.470750146805976, "lon": 113.4914667043597, "alt_km": 821.3151162509757, "timestamp": "2025-12-12T18:57:43.774814+00:00", "meta": {"OBJECT_NAME": "SUOMI NPP", "OBJECT_ID": "2011-061A", "EPOCH": "2025-12-12T06:29:50.706528", "MEAN_MOTION": 14.19514007, "ECCENTRICITY": 0.00022297, "INCLINATION": 98.7773, "RA_OF_ASC_NODE": 283.6165, "ARG_OF_PERICENTER": 121.169, "MEAN_ANOMALY": 238.9705, "EPHEMERIS_TYPE": 0, "CLASSIFICATION_TYPE": "U", "NORAD_CAT_ID": 37849, "ELEMENT_SET_NO": 999, "REV_AT_EPOCH": 73192, "BSTAR": 0.00010322268, "MEAN_MOTION_DOT": 1.73e-06, "MEAN_MOTION_DDOT": 0}, "tle": {"line1": "1 37849U 11061A   25346.27072577  .00000173  00000+0  10322-3 0  9998", "line2": "2 37849  98.7773 283.6165 0002229 121.1690 238.9705 14.19514007731928"}}, "geometry": {"type": "Point", "coordinates": [113.4914667043597, 46.470750146805976]}}]}